NORAD_CAT_ID,OBJECT_NAME,OBJECT_TYPE,EPOCH,MEAN_MOTION,ECCENTRICITY,INCLINATION,RA_OF_ASC_NODE,ARG_OF_PERICENTER,MEAN_ANOMALY,BSTAR,MEAN_MOTION_DOT,MEAN_MOTION_DDOT,TLE_LINE0,TLE_LINE1,TLE_LINE2,SEMIMAJOR_AXIS,PERIOD,APOGEE,PERIGEE,DECAYED
51463.0,STARLINK-3419,PAYLOAD,2023-12-05 10:55:46,15.0884212,0.0001721,53.2195,23.7468,83.3793,276.7395,0.00062102,9.61e-05,0.0,0 STARLINK-3419,1 51463U 22010H   23339.45540019  .00009610  00000-0  62102-3 0  9992,2 51463  53.2195  23.7468 0001721  83.3793 276.7395 15.08842120102687,6917.874,95.437,540.929,538.548,0.0
51463.0,STARLINK-3419,PAYLOAD,2023-12-06 02:49:38,15.08848194,0.0001801,53.2203,20.7675,100.5662,259.5533,0.00015307,2.149e-05,0.0,0 STARLINK-3419,1 51463U 22010H   23340.11780169  .00002149  00000-0  15307-3 0  9994,2 51463  53.2203  20.7675 0001801 100.5662 259.5533 15.08848194102781,6917.855,95.437,540.966,538.474,0.0
51463.0,STARLINK-3419,PAYLOAD,2023-12-06 09:11:10,15.08851622,0.0001697,53.2184,19.5816,89.4411,270.6776,3.912e-05,3.35e-06,0.0,0 STARLINK-3419,1 51463U 22010H   23340.38275882  .00000335  00000-0  39120-4 0  9999,2 51463  53.2184  19.5816 0001697  89.4411 270.6776 15.08851622102077,6917.845,95.437,540.884,538.536,0.0
51463.0,STARLINK-3419,PAYLOAD,2023-12-07 09:01:58,15.08816323,0.0001677,53.2187,15.122,84.9618,275.1565,-0.00051046,-8.398e-05,0.0,0 STARLINK-3419,1 51463U 22010H   23341.37637508 -.00008398  00000-0 -51046-3 0  9995,2 51463  53.2187  15.1220 0001677  84.9618 275.1565 15.08816323102972,6917.953,95.439,540.978,538.658,0.0
51463.0,STARLINK-3419,PAYLOAD,2023-12-07 12:12:45,15.0881777,0.0001537,53.2182,14.5266,84.0599,276.0568,-0.00043924,-7.267e-05,0.0,0 STARLINK-3419,1 51463U 22010H   23341.50885620 -.00007267  00000-0 -43924-3 0  9990,2 51463  53.2182  14.5266 0001537  84.0599 276.0568 15.08817770102244,6917.948,95.439,540.877,538.75,0.0
51463.0,STARLINK-3419,PAYLOAD,2023-12-08 02:31:13,15.08826502,0.0002243,53.2184,11.8584,53.5447,306.5751,0.00012827,1.753e-05,0.0,0 STARLINK-3419,1 51463U 22010H   23342.10502077  .00001753  00000-0  12827-3 0  9999,2 51463  53.2184  11.8584 0002243  53.5447 306.5751 15.08826502103086,6917.922,95.438,541.338,538.235,0.0
51463.0,STARLINK-3419,PAYLOAD,2023-12-08 08:52:45,15.08839631,0.0001912,53.218,10.662,79.549,280.5717,0.00022468,3.289e-05,0.0,0 STARLINK-3419,1 51463U 22010H   23342.36997392  .00003289  00000-0  22468-3 0  9993,2 51463  53.2180  10.6620 0001912  79.5490 280.5717 15.08839631103123,6917.882,95.438,541.069,538.424,0.0
51463.0,STARLINK-3419,PAYLOAD,2023-12-09 08:43:32,15.08862725,0.000183,53.2184,6.2062,78.6616,281.4581,0.00068447,0.00010629,0.0,0 STARLINK-3419,1 51463U 22010H   23343.36356527  .00010629  00000-0  68447-3 0  9996,2 51463  53.2184   6.2062 0001830  78.6616 281.4581 15.08862725103272,6917.811,95.436,540.942,538.41,0.0
51463.0,STARLINK-3419,PAYLOAD,2023-12-10 10:09:41,15.08850857,0.0002075,53.2174,1.4403,69.2059,290.9155,4.6592e-07,-2.81e-06,0.0,0 STARLINK-3419,1 51463U 22010H   23344.42340186 -.00000281  00000-0  46592-6 0  9992,2 51463  53.2174   1.4403 0002075  69.2059 290.9155 15.08850857103439,6917.847,95.437,541.148,538.277,0.0
51463.0,STARLINK-3419,PAYLOAD,2023-12-11 08:25:05,15.08847873,0.0001858,53.2176,357.2791,72.2722,287.8472,-9.4533e-05,-1.793e-05,0.0,0 STARLINK-3419,1 51463U 22010H   23345.35075996 -.00001793  00000-0 -94533-4 0  9995,2 51463  53.2176 357.2791 0001858  72.2722 287.8472 15.08847873102825,6917.856,95.437,541.007,538.436,0.0
51463.0,STARLINK-3419,PAYLOAD,2023-12-12 08:15:53,15.08842044,0.0001959,53.2181,352.8184,70.2847,289.8356,0.0001545,2.172e-05,0.0,0 STARLINK-3419,1 51463U 22010H   23346.34436440  .00002172  00000-0  15450-3 0  9990,2 51463  53.2181 352.8184 0001959  70.2847 289.8356 15.08842044103724,6917.874,95.437,541.094,538.384,0.0
51463.0,STARLINK-3419,PAYLOAD,2023-12-13 06:31:17,15.0884062,0.000189,53.2178,348.6577,74.53,285.5901,9.2971e-05,1.192e-05,0.0,0 STARLINK-3419,1 51463U 22010H   23347.27172609  .00001192  00000-0  92971-4 0  9992,2 51463  53.2178 348.6577 0001890  74.5300 285.5901 15.08840620103866,6917.878,95.438,541.051,538.436,0.0
51463.0,STARLINK-3419,PAYLOAD,2023-12-14 06:22:04,15.08843853,0.0001801,53.2175,344.1962,81.6706,278.449,0.00013819,1.912e-05,0.0,0 STARLINK-3419,1 51463U 22010H   23348.26532503  .00001912  00000-0  13819-3 0  9998,2 51463  53.2175 344.1962 0001801  81.6706 278.4490 15.08843853103262,6917.869,95.437,540.98,538.488,0.0
51463.0,STARLINK-3419,PAYLOAD,2023-12-15 04:37:27,15.08845003,0.000169,53.217,340.03,98.8149,261.3034,0.00015454,2.173e-05,0.0,0 STARLINK-3419,1 51463U 22010H   23349.19268191  .00002173  00000-0  15454-3 0  9997,2 51463  53.2170 340.0300 0001690  98.8149 261.3034 15.08845003104158,6917.865,95.437,540.899,538.561,0.0
51463.0,STARLINK-3419,PAYLOAD,2023-12-15 06:12:50,15.08846602,0.0001781,53.2176,339.7332,102.9722,257.1469,0.00017191,2.449e-05,0.0,0 STARLINK-3419,1 51463U 22010H   23349.25892082  .00002449  00000-0  17191-3 0  9992,2 51463  53.2176 339.7332 0001781 102.9722 257.1469 15.08846602103418,6917.86,95.437,540.957,538.493,0.0
51463.0,STARLINK-3419,PAYLOAD,2023-12-16 02:52:52,15.08835629,0.0001606,53.2164,335.8574,92.4722,267.6453,-2.2429e-05,-6.45e-06,0.0,0 STARLINK-3419,1 51463U 22010H   23350.12004755 -.00000645  00000-0 -22429-4 0  9991,2 51463  53.2164 335.8574 0001606  92.4722 267.6453 15.08835629104292,6917.894,95.438,540.87,538.648,0.0
51463.0,STARLINK-3419,PAYLOAD,2023-12-16 06:03:38,15.08834212,0.0001606,53.2174,335.2669,102.0391,258.0781,9.26e-06,-1.41e-06,0.0,0 STARLINK-3419,1 51463U 22010H   23350.25252927 -.00000141  00000-0  92600-5 0  9990,2 51463  53.2174 335.2669 0001606 102.0391 258.0781 15.08834212103566,6917.898,95.438,540.874,538.652,0.0
51463.0,STARLINK-3419,PAYLOAD,2023-12-17 05:54:25,15.08840692,0.0001514,53.2172,330.8088,94.5058,265.6107,4.017e-05,3.51e-06,0.0,0 STARLINK-3419,1 51463U 22010H   23351.24613056  .00000351  00000-0  40170-4 0  9990,2 51463  53.2172 330.8088 0001514  94.5058 265.6107 15.08840692104468,6917.878,95.438,540.791,538.696,0.0
51463.0,STARLINK-3419,PAYLOAD,2023-12-18 04:09:49,15.08854314,0.0001522,53.2174,326.6461,89.7783,270.3384,0.00041415,6.312e-05,0.0,0 STARLINK-3419,1 51463U 22010H   23352.17348636  .00006312  00000-0  41415-3 0  9997,2 51463  53.2174 326.6461 0001522  89.7783 270.3384 15.08854314104600,6917.837,95.437,540.755,538.649,0.0
51463.0,STARLINK-3419,PAYLOAD,2023-12-19 04:00:36,15.08837948,0.0003645,53.2182,322.1975,155.9645,204.1518,-0.00011747,-2.158e-05,0.0,0 STARLINK-3419,1 51463U 22010H   23353.16708856 -.00002158  00000-0 -11747-3 0  9992,2 51463  53.2182 322.1975 0003645 155.9645 204.1518 15.08837948104755,6917.887,95.438,542.273,537.23,0.0
51463.0,STARLINK-3419,PAYLOAD,2023-12-19 05:36:00,15.08835649,0.0001299,53.2175,321.8941,95.6898,264.4242,-4.394e-05,-9.87e-06,0.0,0 STARLINK-3419,1 51463U 22010H   23353.23333480 -.00000987  00000-0 -43940-4 0  9996,2 51463  53.2175 321.8941 0001299  95.6898 264.4242 15.08835649104017,6917.894,95.438,540.657,538.86,0.0
51463.0,STARLINK-3419,PAYLOAD,2023-12-20 05:26:47,15.08846818,0.0001348,53.2174,317.4347,88.3338,271.7808,0.00048634,7.462e-05,0.0,0 STARLINK-3419,1 51463U 22010H   23354.22693720  .00007462  00000-0  48634-3 0  9999,2 51463  53.2174 317.4347 0001348  88.3338 271.7808 15.08846818104918,6917.86,95.437,540.657,538.792,0.0
51463.0,STARLINK-3419,PAYLOAD,2023-12-21 03:42:10,15.08859486,0.0001548,53.2174,313.2689,75.5444,284.572,0.00063608,9.855e-05,0.0,0 STARLINK-3419,1 51463U 22010H   23355.15429328  .00009855  00000-0  63608-3 0  9999,2 51463  53.2174 313.2689 0001548  75.5444 284.5720 15.08859486104302,6917.821,95.436,540.757,538.615,0.0
51463.0,STARLINK-3419,PAYLOAD,2023-12-22 03:32:58,15.08846025,0.0001675,53.2172,308.8111,109.613,250.5043,0.00012479,1.699e-05,0.0,0 STARLINK-3419,1 51463U 22010H   23356.14789380  .00001699  00000-0  12479-3 0  9994,2 51463  53.2172 308.8111 0001675 109.6130 250.5043 15.08846025105208,6917.862,95.437,540.886,538.568,0.0
51463.0,STARLINK-3419,PAYLOAD,2023-12-23 03:23:45,15.08843985,0.0001784,53.2175,304.3433,95.2106,264.909,9.7016e-05,1.256e-05,0.0,0 STARLINK-3419,1 51463U 22010H   23357.14149458  .00001256  00000-0  97016-4 0  9991,2 51463  53.2175 304.3433 0001784  95.2106 264.9090 15.08843985105352,6917.868,95.437,540.967,538.499,0.0
51463.0,STARLINK-3419,PAYLOAD,2023-12-23 06:34:31,15.08845207,0.0001897,53.2172,303.7477,113.2479,246.8713,0.00021596,3.151e-05,0.0,0 STARLINK-3419,1 51463U 22010H   23357.27397591  .00003151  00000-0  21596-3 0  9993,2 51463  53.2172 303.7477 0001897 113.2479 246.8713 15.08845207104628,6917.864,95.437,541.042,538.417,0.0
51463.0,STARLINK-3419,PAYLOAD,2023-12-23 20:53:00,15.08838969,0.0002,53.2178,301.0689,107.5467,252.5744,0.0001496,2.093e-05,0.0,0 STARLINK-3419,1 51463U 22010H   23357.87014077  .00002093  00000-0  14960-3 0  9995,2 51463  53.2178 301.0689 0002000 107.5467 252.5744 15.08838969104715,6917.884,95.438,541.132,538.365,0.0
51463.0,STARLINK-3419,PAYLOAD,2023-12-24 03:14:32,15.08848344,0.0001767,53.2167,299.8793,103.801,256.3179,0.00032677,4.917e-05,0.0,0 STARLINK-3419,1 51463U 22010H   23358.13509693  .00004917  00000-0  32677-3 0  9990,2 51463  53.2167 299.8793 0001767 103.8010 256.3179 15.08848344104751,6917.855,95.437,540.942,538.497,0.0
51463.0,STARLINK-3419,PAYLOAD,2023-12-24 20:43:47,15.08843033,0.000179,53.2169,296.6144,100.0792,260.0402,0.0001304,1.788e-05,0.0,0 STARLINK-3419,1 51463U 22010H   23358.86373960  .00001788  00000-0  13040-3 0  9992,2 51463  53.2169 296.6144 0001790 100.0792 260.0402 15.08843033105617,6917.871,95.437,540.974,538.498,0.0
51463.0,STARLINK-3419,PAYLOAD,2023-12-25 03:05:19,15.08851879,0.0001683,53.2173,295.4248,97.7939,262.3244,0.00039691,6.036e-05,0.0,0 STARLINK-3419,1 51463U 22010H   23359.12869736  .00006036  00000-0  39691-3 0  9994,2 51463  53.2173 295.4248 0001683  97.7939 262.3244 15.08851879104907,6917.844,95.437,540.873,538.545,0.0
